#Pass ID: 20250127_230833_FENGYUN 3G
#Satellite: FENGYUN 3G
#Configuration: FENGYUN 3G
#Start time: 2025-01-27 23:08:38.281804

#LorettStation: 1.0.0 05.05.2024
#Station: Regia
#Location: 37.494653 lon 55.929028 lat
#TLE: 1 56232U 23055A   25026.72765940  .00044627  00000+0  71526-3 0  9994
#TLE: 2 56232  49.9959  77.7290 0019662 279.9815  79.8933 15.52374146101281

#Time	Az	El	Level	SNR
#Closed at: 2025-01-27 23:08:33.283739